STARLINK-30069          
1 56834U 23079M   26067.48212902 -.00002416  00000+0 -80472-4 0  9995
2 56834  42.9986 110.4464 0000469 272.6695  87.4103 15.26726881152740
STARLINK-34015          
1 63854U 25093U   26068.66670139 -.00013015  00000+0 -46418-3 0  9992
2 63854  43.0021  78.3577 0001302 259.9670 136.0451 15.27584294  5674
